start=new Date('2022-07-24T00:00:00.000Z').valueOf();
sats=[{"NORAD_CAT_ID":"45575","RCS_SIZE":"LARGE","ARG_OF_PERICENTER":"10.4433","INCLINATION":"52.9986","OBJECT_ID":"2020-025AW","SEMIMAJOR_AXIS":"6895.963","GP_ID":"208733363","COUNTRY_CODE":"US","LAUNCH_DATE":"2020-04-22","OBJECT_TYPE":"PAYLOAD","ELEMENT_SET_NO":"999","CLASSIFICATION_TYPE":"U","DECAY_DATE":null,"OBJECT_NAME":"STARLINK-1326","REF_FRAME":"TEME","FILE":"3520602","APOAPSIS":"518.166","SITE":"AFETR","REV_AT_EPOCH":"12599","EPOCH":"2022-07-23T19:43:29.822016","BSTAR":"0.00072245000000","TIME_SYSTEM":"UTC","MEAN_MOTION":"15.16038910","MEAN_MOTION_DOT":"0.00013776","ECCENTRICITY":"0.00004900","MEAN_ELEMENT_THEORY":"SGP4","PERIOD":"94.984","TLE_LINE2":"2 45575  52.9986 249.9466 0000490  10.4433 349.6569 15.16038910125997","RA_OF_ASC_NODE":"249.9466","TLE_LINE1":"1 45575U 20025AW  22204.82187294  .00013776  00000-0  72245-3 0  9993","MEAN_ANOMALY":"349.6569","CENTER_NAME":"EARTH","MEAN_MOTION_DDOT":"0.0000000000000","PERIAPSIS":"517.490","EPHEMERIS_TYPE":"0"},{"EPHEMERIS_TYPE":"0","PERIAPSIS":"546.104","MEAN_MOTION_DDOT":"0.0000000000000","CENTER_NAME":"EARTH","MEAN_ANOMALY":"288.2271","RA_OF_ASC_NODE":"264.9676","TLE_LINE1":"1 45576U 20025AX  22204.64571536  .00010337  00000-0  71167-3 0  9992","TLE_LINE2":"2 45576  53.0546 264.9676 0001560  71.8887 288.2271 15.06409387125802","PERIOD":"95.592","MEAN_ELEMENT_THEORY":"SGP4","ECCENTRICITY":"0.00015600","MEAN_MOTION_DOT":"0.00010337","MEAN_MOTION":"15.06409387","TIME_SYSTEM":"UTC","BSTAR":"0.00071167000000","EPOCH":"2022-07-23T15:29:49.807104","REV_AT_EPOCH":"12580","SITE":"AFETR","APOAPSIS":"548.265","FILE":"3520602","REF_FRAME":"TEME","OBJECT_NAME":"STARLINK-1328","DECAY_DATE":null,"CLASSIFICATION_TYPE":"U","ELEMENT_SET_NO":"999","OBJECT_TYPE":"PAYLOAD","LAUNCH_DATE":"2020-04-22","COUNTRY_CODE":"US","GP_ID":"208733613","SEMIMAJOR_AXIS":"6925.320","OBJECT_ID":"2020-025AX","INCLINATION":"53.0546","ARG_OF_PERICENTER":"71.8887","RCS_SIZE":"LARGE","NORAD_CAT_ID":"45576"},{"GP_ID":"208734862","COUNTRY_CODE":"US","SEMIMAJOR_AXIS":"6925.394","INCLINATION":"53.0548","OBJECT_ID":"2020-025AY","NORAD_CAT_ID":"45577","RCS_SIZE":"LARGE","ARG_OF_PERICENTER":"60.4549","OBJECT_NAME":"STARLINK-1330","DECAY_DATE":null,"CLASSIFICATION_TYPE":"U","OBJECT_TYPE":"PAYLOAD","ELEMENT_SET_NO":"999","LAUNCH_DATE":"2020-04-22","MEAN_MOTION":"15.06385030","TIME_SYSTEM":"UTC","BSTAR":"-0.00033957000000","EPOCH":"2022-07-23T20:48:15.903072","REV_AT_EPOCH":"12582","SITE":"AFETR","APOAPSIS":"548.009","FILE":"3520602","REF_FRAME":"TEME","EPHEMERIS_TYPE":"0","CENTER_NAME":"EARTH","PERIAPSIS":"546.509","MEAN_MOTION_DDOT":"0.0000000000000","TLE_LINE1":"1 45577U 20025AY  22204.86685073 -.00005333  00000-0 -33957-3 0  9996","RA_OF_ASC_NODE":"263.9778","MEAN_ANOMALY":"299.6548","MEAN_ELEMENT_THEORY":"SGP4","PERIOD":"95.593","TLE_LINE2":"2 45577  53.0548 263.9778 0001083  60.4549 299.6548 15.06385030125829","MEAN_MOTION_DOT":"-0.00005333","ECCENTRICITY":"0.00010830"},{"OBJECT_NAME":"STARLINK-1331","DECAY_DATE":null,"CLASSIFICATION_TYPE":"U","OBJECT_TYPE":"PAYLOAD","ELEMENT_SET_NO":"999","LAUNCH_DATE":"2020-04-22","GP_ID":"208734613","COUNTRY_CODE":"US","SEMIMAJOR_AXIS":"6925.387","INCLINATION":"53.0533","OBJECT_ID":"2020-025AZ","NORAD_CAT_ID":"45578","RCS_SIZE":"LARGE","ARG_OF_PERICENTER":"80.9934","EPHEMERIS_TYPE":"0","CENTER_NAME":"EARTH","MEAN_MOTION_DDOT":"0.0000000000000","PERIAPSIS":"546.267","RA_OF_ASC_NODE":"265.2931","TLE_LINE1":"1 45578U 20025AZ  22204.57199359  .00003841  00000-0  27673-3 0  9990","MEAN_ANOMALY":"279.1216","MEAN_ELEMENT_THEORY":"SGP4","PERIOD":"95.593","TLE_LINE2":"2 45578  53.0533 265.2931 0001422  80.9934 279.1216 15.06387433125792","MEAN_MOTION_DOT":"0.00003841","ECCENTRICITY":"0.00014220","MEAN_MOTION":"15.06387433","BSTAR":"0.00027673000000","TIME_SYSTEM":"UTC","EPOCH":"2022-07-23T13:43:40.246176","REV_AT_EPOCH":"12579","SITE":"AFETR","FILE":"3520602","APOAPSIS":"548.237","REF_FRAME":"TEME"},{"EPOCH":"2022-07-23T18:40:56.152416","SITE":"AFETR","REV_AT_EPOCH":"12637","MEAN_MOTION":"15.06394720","BSTAR":"0.00013415000000","TIME_SYSTEM":"UTC","APOAPSIS":"548.030","FILE":"3520602","REF_FRAME":"TEME","TLE_LINE1":"1 45579U 20025BA  22204.77842769  .00001717  00000-0  13415-3 0  9992","RA_OF_ASC_NODE":"224.5295","MEAN_ANOMALY":"261.2987","PERIOD":"95.592","MEAN_ELEMENT_THEORY":"SGP4","TLE_LINE2":"2 45579  53.0537 224.5295 0001156  98.8133 261.2987 15.06394720126370","EPHEMERIS_TYPE":"0","CENTER_NAME":"EARTH","PERIAPSIS":"546.429","MEAN_MOTION_DDOT":"0.0000000000000","MEAN_MOTION_DOT":"0.00001717","ECCENTRICITY":"0.00011560","GP_ID":"208733863","COUNTRY_CODE":"US","SEMIMAJOR_AXIS":"6925.365","NORAD_CAT_ID":"45579","RCS_SIZE":"LARGE","ARG_OF_PERICENTER":"98.8133","INCLINATION":"53.0537","OBJECT_ID":"2020-025BA","CLASSIFICATION_TYPE":"U","OBJECT_NAME":"STARLINK-1332","DECAY_DATE":null,"OBJECT_TYPE":"PAYLOAD","ELEMENT_SET_NO":"999","LAUNCH_DATE":"2020-04-22"},{"FILE":"3520602","APOAPSIS":"548.177","REF_FRAME":"TEME","MEAN_MOTION":"15.06397525","TIME_SYSTEM":"UTC","BSTAR":"0.00018375000000","EPOCH":"2022-07-23T13:52:58.708992","SITE":"AFETR","REV_AT_EPOCH":"12564","ECCENTRICITY":"0.00013800","MEAN_MOTION_DOT":"0.00002456","EPHEMERIS_TYPE":"0","MEAN_MOTION_DDOT":"0.0000000000000","PERIAPSIS":"546.265","CENTER_NAME":"EARTH","MEAN_ANOMALY":"276.1176","RA_OF_ASC_NODE":"275.2652","TLE_LINE1":"1 45580U 20025BB  22204.57845728  .00002456  00000-0  18375-3 0  9991","TLE_LINE2":"2 45580  53.0541 275.2652 0001380  83.9970 276.1176 15.06397525125640","MEAN_ELEMENT_THEORY":"SGP4","PERIOD":"95.592","OBJECT_ID":"2020-025BB","INCLINATION":"53.0541","ARG_OF_PERICENTER":"83.9970","NORAD_CAT_ID":"45580","RCS_SIZE":"LARGE","COUNTRY_CODE":"US","GP_ID":"208734113","SEMIMAJOR_AXIS":"6925.356","ELEMENT_SET_NO":"999","OBJECT_TYPE":"PAYLOAD","LAUNCH_DATE":"2020-04-22","OBJECT_NAME":"STARLINK-1333","DECAY_DATE":null,"CLASSIFICATION_TYPE":"U"},{"CLASSIFICATION_TYPE":"U","OBJECT_NAME":"STARLINK-1335","DECAY_DATE":null,"ELEMENT_SET_NO":"999","OBJECT_TYPE":"PAYLOAD","LAUNCH_DATE":"2020-04-22","COUNTRY_CODE":"US","GP_ID":"208734364","SEMIMAJOR_AXIS":"6925.309","ARG_OF_PERICENTER":"88.8859","NORAD_CAT_ID":"45581","RCS_SIZE":"LARGE","OBJECT_ID":"2020-025BC","INCLINATION":"53.0534","MEAN_ANOMALY":"271.2298","TLE_LINE1":"1 45581U 20025BC  22204.58305368  .00009536  00000-0  65801-3 0  9996","RA_OF_ASC_NODE":"265.2499","TLE_LINE2":"2 45581  53.0534 265.2499 0001463  88.8859 271.2298 15.06413035125784","MEAN_ELEMENT_THEORY":"SGP4","PERIOD":"95.591","EPHEMERIS_TYPE":"0","PERIAPSIS":"546.160","MEAN_MOTION_DDOT":"0.0000000000000","CENTER_NAME":"EARTH","ECCENTRICITY":"0.00014630","MEAN_MOTION_DOT":"0.00009536","EPOCH":"2022-07-23T13:59:35.837952","REV_AT_EPOCH":"12578","SITE":"AFETR","MEAN_MOTION":"15.06413035","TIME_SYSTEM":"UTC","BSTAR":"0.00065801000000","FILE":"3520602","APOAPSIS":"548.187","REF_FRAME":"TEME"},{"CLASSIFICATION_TYPE":"U","DECAY_DATE":null,"OBJECT_NAME":"STARLINK-1337","LAUNCH_DATE":"2020-04-22","ELEMENT_SET_NO":"999","OBJECT_TYPE":"PAYLOAD","SEMIMAJOR_AXIS":"6925.350","COUNTRY_CODE":"US","GP_ID":"208735113","ARG_OF_PERICENTER":"69.2240","NORAD_CAT_ID":"45582","RCS_SIZE":"LARGE","OBJECT_ID":"2020-025BD","INCLINATION":"53.0543","TLE_LINE2":"2 45582  53.0543 263.9702 0001484  69.2240 290.8908 15.06399647125829","PERIOD":"95.592","MEAN_ELEMENT_THEORY":"SGP4","MEAN_ANOMALY":"290.8908","TLE_LINE1":"1 45582U 20025BD  22204.87055807  .00001674  00000-0  13122-3 0  9993","RA_OF_ASC_NODE":"263.9702","PERIAPSIS":"546.187","MEAN_MOTION_DDOT":"0.0000000000000","CENTER_NAME":"EARTH","EPHEMERIS_TYPE":"0","ECCENTRICITY":"0.00014840","MEAN_MOTION_DOT":"0.00001674","REV_AT_EPOCH":"12582","SITE":"AFETR","EPOCH":"2022-07-23T20:53:36.217248","BSTAR":"0.00013122000000","TIME_SYSTEM":"UTC","MEAN_MOTION":"15.06399647","REF_FRAME":"TEME","FILE":"3520602","APOAPSIS":"548.242"},{"EPHEMERIS_TYPE":"0","MEAN_MOTION_DDOT":"0.0000000000000","PERIAPSIS":"546.107","CENTER_NAME":"EARTH","MEAN_ANOMALY":"291.6585","TLE_LINE1":"1 45583U 20025BE  22204.52040240  .00009068  00000-0  62660-3 0  9997","RA_OF_ASC_NODE":"265.5313","TLE_LINE2":"2 45583  53.0550 265.5313 0001532  68.4567 291.6585 15.06414829125775","PERIOD":"95.591","MEAN_ELEMENT_THEORY":"SGP4","ECCENTRICITY":"0.00015320","MEAN_MOTION_DOT":"0.00009068","MEAN_MOTION":"15.06414829","TIME_SYSTEM":"UTC","BSTAR":"0.00062660000000","EPOCH":"2022-07-23T12:29:22.767360","SITE":"AFETR","REV_AT_EPOCH":"12577","FILE":"3520423","APOAPSIS":"548.229","REF_FRAME":"TEME","OBJECT_NAME":"STARLINK-1340","DECAY_DATE":null,"CLASSIFICATION_TYPE":"U","ELEMENT_SET_NO":"999","OBJECT_TYPE":"PAYLOAD","LAUNCH_DATE":"2020-04-22","COUNTRY_CODE":"US","GP_ID":"208705804","SEMIMAJOR_AXIS":"6925.303","OBJECT_ID":"2020-025BE","INCLINATION":"53.0550","ARG_OF_PERICENTER":"68.4567","NORAD_CAT_ID":"45583","RCS_SIZE":"LARGE"},{"LAUNCH_DATE":"2020-04-22","ELEMENT_SET_NO":"999","OBJECT_TYPE":"PAYLOAD","CLASSIFICATION_TYPE":"U","DECAY_DATE":null,"OBJECT_NAME":"STARLINK-1343","ARG_OF_PERICENTER":"74.5899","NORAD_CAT_ID":"45584","RCS_SIZE":"LARGE","OBJECT_ID":"2020-025BF","INCLINATION":"53.0532","SEMIMAJOR_AXIS":"6925.355","COUNTRY_CODE":"US","GP_ID":"208733614","ECCENTRICITY":"0.00013480","MEAN_MOTION_DOT":"0.00005533","TLE_LINE2":"2 45584  53.0532 265.2890 0001348  74.5899 285.5239 15.06397773125781","PERIOD":"95.592","MEAN_ELEMENT_THEORY":"SGP4","MEAN_ANOMALY":"285.5239","RA_OF_ASC_NODE":"265.2890","TLE_LINE1":"1 45584U 20025BF  22204.57474128  .00005533  00000-0  39010-3 0  9995","MEAN_MOTION_DDOT":"0.0000000000000","PERIAPSIS":"546.287","CENTER_NAME":"EARTH","EPHEMERIS_TYPE":"0","REF_FRAME":"TEME","APOAPSIS":"548.154","FILE":"3520602","REV_AT_EPOCH":"12578","SITE":"AFETR","EPOCH":"2022-07-23T13:47:37.646592","TIME_SYSTEM":"UTC","BSTAR":"0.00039010000000","MEAN_MOTION":"15.06397773"}];
